[{"OBJECT_NAME":"STARLINK-35251","OBJECT_ID":"2025-207N","EPOCH":"2026-03-09T17:00:44.164800","MEAN_MOTION":15.05646349,"ECCENTRICITY":6.199e-5,"INCLINATION":97.6027,"RA_OF_ASC_NODE":138.6721,"ARG_OF_PERICENTER":99.1283,"MEAN_ANOMALY":261.0014,"EPHEMERIS_TYPE":0,"CLASSIFICATION_TYPE":"U","NORAD_CAT_ID":65604,"ELEMENT_SET_NO":999,"REV_AT_EPOCH":2826,"BSTAR":0.00032686355,"MEAN_MOTION_DOT":4.658e-5,"MEAN_MOTION_DDOT":0},{"OBJECT_NAME":"COSMOS 2251 DEB","OBJECT_ID":"1993-036AZN","EPOCH":"2026-03-08T04:55:11.679456","MEAN_MOTION":14.74823481,"ECCENTRICITY":0.01364476,"INCLINATION":73.9716,"RA_OF_ASC_NODE":347.1087,"ARG_OF_PERICENTER":142.1945,"MEAN_ANOMALY":218.8911,"EPHEMERIS_TYPE":0,"CLASSIFICATION_TYPE":"U","NORAD_CAT_ID":36385,"ELEMENT_SET_NO":999,"REV_AT_EPOCH":86361,"BSTAR":0.002162243,"MEAN_MOTION_DOT":0.00016854,"MEAN_MOTION_DDOT":0}]
